[{"OBJECT_NAME":"SAUDISAT 5B","OBJECT_ID":"2018-102C","EPOCH":"2026-03-09T22:59:17.457216","MEAN_MOTION":15.27248504,"ECCENTRICITY":0.00120577,"INCLINATION":97.3281,"RA_OF_ASC_NODE":135.3629,"ARG_OF_PERICENTER":124.0958,"MEAN_ANOMALY":236.1427,"EPHEMERIS_TYPE":0,"CLASSIFICATION_TYPE":"U","NORAD_CAT_ID":43833,"ELEMENT_SET_NO":999,"REV_AT_EPOCH":40064,"BSTAR":0.00024926623,"MEAN_MOTION_DOT":6.596e-5,"MEAN_MOTION_DDOT":0},{"OBJECT_NAME":"STARLINK-34048","OBJECT_ID":"2025-092N","EPOCH":"2026-03-09T07:33:41.859648","MEAN_MOTION":15.27586411,"ECCENTRICITY":7.705e-5,"INCLINATION":42.9972,"RA_OF_ASC_NODE":174.9792,"ARG_OF_PERICENTER":251.6672,"MEAN_ANOMALY":108.4096,"EPHEMERIS_TYPE":0,"CLASSIFICATION_TYPE":"U","NORAD_CAT_ID":63816,"ELEMENT_SET_NO":999,"REV_AT_EPOCH":4860,"BSTAR":0.00089271593,"MEAN_MOTION_DOT":0.0002439,"MEAN_MOTION_DDOT":0}]
